{"type":"FeatureCollection","name":"Michigan counties","crs":{"type":"name","properties":{"name":"urn:ogc:def:crs:OGC:1.3:CRS84"}},"source":"US Census TIGER/Line via us-atlas counties-10m","features":[{"type":"Feature","id":"26001","properties":{"name":"Alcona","fips":"26001"},"geometry":{"type":"MultiPolygon","coordinates":[[[[-83.8875,44.8566],[-83.3204,44.8583],[-83.2952,44.793],[-83.2988,44.7458],[-83.2737,44.714],[-83.2881,44.653],[-83.3168,44.5954],[-83.3168,44.5112],[-83.8875,44.5087],[-83.8875,44.8566]]]]}},{"type":"Feature","id":"26003","properties":{"name":"Alger","fips":"26003"},"geometry":{"type":"MultiPolygon","coordinates":[[[[-87.1178,46.4948],[-87.0173,46.5335],[-86.9779,46.5266],[-86.9276,46.4647],[-86.8845,46.4415],[-86.8163,46.4381],[-86.7876,46.4776],[-86.7302,46.4716],[-86.6979,46.439],[-86.6835,46.4982],[-86.7087,46.5438],[-86.6512,46.561],[-86.6261,46.5335],[-86.6476,46.4854],[-86.5866,46.463],[-86.4933,46.5249],[-86.3497,46.5781],[-86.138,46.6726],[-86.0985,46.6546],[-85.8652,46.6898],[-85.8652,46.5051],[-86.3641,46.506],[-86.3641,46.3316],[-86.6153,46.3333],[-86.6153,46.1589],[-87.1178,46.1589],[-87.1178,46.4948]]]]}},{"type":"Feature","id":"26005","properties":{"name":"Allegan","fips":"26005"},"geometry":{"type":"MultiPolygon","coordinates":[[[[-86.2098,42.7673],[-85.7826,42.7682],[-85.5457,42.7682],[-85.5421,42.4211],[-85.7647,42.4203],[-86.2744,42.4194],[-86.2492,42.4804],[-86.2241,42.5947],[-86.2277,42.6445],[-86.2062,42.7192],[-86.2098,42.7673]]]]}},{"type":"Feature","id":"26007","properties":{"name":"Alpena","fips":"26007"},"geometry":{"type":"MultiPolygon","coordinates":[[[[-83.8803,45.2019],[-83.3886,45.2071],[-83.3599,45.1633],[-83.3204,45.1375],[-83.2701,45.0232],[-83.3419,45.0413],[-83.3993,45.0705],[-83.4532,45.0353],[-83.4388,44.9408],[-83.3957,44.903],[-83.3204,44.8806],[-83.3204,44.8583],[-83.8875,44.8566],[-83.8911,45.0301],[-83.8803,45.031],[-83.8803,45.2019]]]]}},{"type":"Feature","id":"26009","properties":{"name":"Antrim","fips":"26009"},"geometry":{"type":"MultiPolygon","coordinates":[[[[-85.3878,45.2079],[-85.2227,45.2054],[-85.2227,45.1177],[-84.8566,45.1169],[-84.8566,45.0301],[-84.8458,44.8583],[-85.2909,44.86],[-85.3268,44.8506],[-85.334,44.8128],[-85.3734,44.8291],[-85.3806,44.8592],[-85.4416,44.86],[-85.395,44.9313],[-85.3663,45.0688],[-85.3878,45.2079]]]]}},{"type":"Feature","id":"26011","properties":{"name":"Arenac","fips":"26011"},"geometry":{"type":"MultiPolygon","coordinates":[[[[-84.1674,44.1616],[-83.8839,44.1616],[-83.5644,44.1633],[-83.5824,44.0568],[-83.6506,44.0525],[-83.6793,44.0362],[-83.6793,43.9941],[-83.83,43.9889],[-83.8767,43.9589],[-83.909,43.9108],[-84.0454,43.9108],[-84.0454,43.9967],[-84.1674,43.9967],[-84.1674,44.1616]]]]}},{"type":"Feature","id":"26013","properties":{"name":"Baraga","fips":"26013"},"geometry":{"type":"MultiPolygon","coordinates":[[[[-88.4495,46.9389],[-88.4854,46.8316],[-88.4638,46.7869],[-88.4961,46.7568],[-88.4566,46.7594],[-88.3849,46.8341],[-88.3741,46.8719],[-88.349,46.8608],[-88.2449,46.9295],[-88.1444,46.9664],[-88.1875,46.9192],[-88.2305,46.8986],[-88.2844,46.8324],[-88.1767,46.9046],[-88.0834,46.92],[-88.0439,46.9123],[-88.0439,46.7654],[-87.99,46.7654],[-87.99,46.6795],[-88.1157,46.6786],[-88.1157,46.4201],[-88.6792,46.4201],[-88.6792,46.8522],[-88.5536,46.8522],[-88.5536,46.9389],[-88.4495,46.9389]]]]}},{"type":"Feature","id":"26015","properties":{"name":"Barry","fips":"26015"},"geometry":{"type":"MultiPolygon","coordinates":[[[[-85.5457,42.7682],[-85.3088,42.7699],[-85.0755,42.7708],[-85.0719,42.4211],[-85.2981,42.4194],[-85.5421,42.4211],[-85.5457,42.7682]]]]}},{"type":"Feature","id":"26017","properties":{"name":"Bay","fips":"26017"},"geometry":{"type":"MultiPolygon","coordinates":[[[[-84.1674,43.8257],[-84.1674,43.9967],[-84.0454,43.9967],[-84.0454,43.9108],[-83.909,43.9108],[-83.927,43.7871],[-83.9557,43.751],[-83.909,43.6728],[-83.8516,43.6453],[-83.8193,43.6737],[-83.8013,43.641],[-83.7295,43.623],[-83.7008,43.6015],[-83.6972,43.4787],[-83.8193,43.4787],[-83.8157,43.5225],[-84.0526,43.5242],[-84.049,43.5671],[-84.1674,43.5689],[-84.1674,43.8257]]]]}},{"type":"Feature","id":"26019","properties":{"name":"Benzie","fips":"26019"},"geometry":{"type":"MultiPolygon","coordinates":[[[[-86.0734,44.7784],[-85.8149,44.7741],[-85.8185,44.513],[-86.2349,44.5181],[-86.2241,44.5946],[-86.26,44.6633],[-86.2564,44.6916],[-86.1595,44.7286],[-86.0877,44.7415],[-86.0734,44.7784]]]]}},{"type":"Feature","id":"26021","properties":{"name":"Berrien","fips":"26021"},"geometry":{"type":"MultiPolygon","coordinates":[[[[-86.8235,41.7605],[-86.7158,41.8189],[-86.6189,41.8937],[-86.4861,42.1179],[-86.3641,42.2433],[-86.2241,42.2433],[-86.2241,42.0715],[-86.2277,41.7597],[-86.5256,41.7597],[-86.8235,41.7605]]]]}},{"type":"Feature","id":"26023","properties":{"name":"Branch","fips":"26023"},"geometry":{"type":"MultiPolygon","coordinates":[[[[-85.2945,42.0715],[-84.8279,42.0724],[-84.8243,41.7597],[-85.1976,41.7597],[-85.2909,41.7597],[-85.2945,42.0715]]]]}},{"type":"Feature","id":"26025","properties":{"name":"Calhoun","fips":"26025"},"geometry":{"type":"MultiPolygon","coordinates":[[[[-85.2981,42.4194],[-85.0719,42.4211],[-84.7202,42.4211],[-84.7202,42.3344],[-84.7094,42.0707],[-84.8279,42.0724],[-85.2945,42.0715],[-85.2981,42.4194]]]]}},{"type":"Feature","id":"26027","properties":{"name":"Cass","fips":"26027"},"geometry":{"type":"MultiPolygon","coordinates":[[[[-86.2277,41.7597],[-86.2241,42.0715],[-85.7647,42.0689],[-85.7611,41.7992],[-85.7898,41.7588],[-86.0626,41.7605],[-86.2277,41.7597]]]]}},{"type":"Feature","id":"26029","properties":{"name":"Charlevoix","fips":"26029"},"geometry":{"type":"MultiPolygon","coordinates":[[[[-85.0971,45.3669],[-85.0971,45.3359],[-85.0468,45.3351],[-85.0002,45.2724],[-84.9643,45.2913],[-84.731,45.2895],[-84.7346,45.2019],[-84.7346,45.1152],[-84.8566,45.1169],[-85.2227,45.1177],[-85.2227,45.2054],[-85.3878,45.2079],[-85.3699,45.2706],[-85.3088,45.3127],[-85.2729,45.3153],[-85.2083,45.3566],[-85.0971,45.3669]]],[[[-85.377,45.8127],[-85.3519,45.7955],[-85.395,45.7784],[-85.377,45.8127]]],[[[-85.5242,45.8299],[-85.4488,45.7964],[-85.4632,45.7655],[-85.5314,45.7981],[-85.5242,45.8299]]],[[[-85.6283,45.598],[-85.6032,45.6392],[-85.5924,45.6985],[-85.5709,45.7113],[-85.5673,45.7603],[-85.5027,45.7543],[-85.5062,45.6813],[-85.4919,45.61],[-85.5601,45.5722],[-85.6283,45.598]]],[[[-85.7001,45.7363],[-85.6534,45.7431],[-85.6714,45.6967],[-85.6965,45.6976],[-85.7001,45.7363]]]]}},{"type":"Feature","id":"26031","properties":{"name":"Cheboygan","fips":"26031"},"geometry":{"type":"MultiPolygon","coordinates":[[[[-84.731,45.2895],[-84.731,45.7878],[-84.7166,45.7663],[-84.5551,45.7019],[-84.4618,45.6521],[-84.4151,45.6693],[-84.3756,45.6555],[-84.329,45.6641],[-84.2033,45.6272],[-84.2536,45.6263],[-84.25,45.2818],[-84.2464,45.1985],[-84.3649,45.1985],[-84.7346,45.2019],[-84.731,45.2895]]]]}},{"type":"Feature","id":"26033","properties":{"name":"Chippewa","fips":"26033"},"geometry":{"type":"MultiPolygon","coordinates":[[[[-85.2371,46.756],[-85.1724,46.7637],[-85.0648,46.7577],[-84.9499,46.7697],[-85.0289,46.6975],[-85.0361,46.5816],[-85.0289,46.5429],[-85.0576,46.5266],[-85.0253,46.4828],[-84.9679,46.4759],[-84.9356,46.4897],[-84.914,46.4673],[-84.8602,46.4699],[-84.7992,46.4458],[-84.6771,46.4879],[-84.6305,46.4845],[-84.591,46.445],[-84.5946,46.4149],[-84.5048,46.439],[-84.4797,46.433],[-84.4438,46.4888],[-84.3756,46.5094],[-84.2931,46.4931],[-84.2536,46.5008],[-84.2249,46.5343],[-84.128,46.53],[-84.11,46.5043],[-84.1459,46.4184],[-84.1208,46.3153],[-84.1172,46.2337],[-84.2213,46.2319],[-84.25,46.1761],[-84.1962,46.1658],[-84.1782,46.1838],[-84.1244,46.1804],[-84.0957,46.1477],[-84.0275,46.1314],[-84.0741,46.0971],[-83.988,46.0326],[-83.9449,46.0318],[-83.8731,45.9931],[-83.8444,46.0258],[-83.7942,45.9957],[-83.7654,46.018],[-83.8229,46.1039],[-83.7726,46.0911],[-83.6255,46.1022],[-83.5824,46.0893],[-83.5321,46.0112],[-83.4747,45.9845],[-83.5106,45.9295],[-83.5609,45.9124],[-83.6578,45.9459],[-83.769,45.9321],[-83.8803,45.9682],[-83.9198,45.9579],[-84.0167,45.9588],[-84.1136,45.9785],[-84.2392,45.9845],[-84.2392,46.0713],[-84.3649,46.0713],[-84.3649,46.1581],[-85.1114,46.1581],[-85.115,46.2457],[-85.2371,46.2457],[-85.2371,46.756]]]]}},{"type":"Feature","id":"26035","properties":{"name":"Clare","fips":"26035"},"geometry":{"type":"MultiPolygon","coordinates":[[[[-85.0863,44.1642],[-84.853,44.1616],[-84.6089,44.1607],[-84.6053,43.8154],[-85.0899,43.8137],[-85.0863,44.1642]]]]}},{"type":"Feature","id":"26037","properties":{"name":"Clinton","fips":"26037"},"geometry":{"type":"MultiPolygon","coordinates":[[[[-84.8386,43.1187],[-84.3684,43.1178],[-84.3649,42.7759],[-84.3649,42.7699],[-84.6017,42.7699],[-84.8386,42.7708],[-84.8386,43.1187]]]]}},{"type":"Feature","id":"26039","properties":{"name":"Crawford","fips":"26039"},"geometry":{"type":"MultiPolygon","coordinates":[[[[-84.8458,44.8583],[-84.372,44.8549],[-84.372,44.5069],[-84.4725,44.5104],[-84.8494,44.5112],[-84.8458,44.8583]]]]}},{"type":"Feature","id":"26041","properties":{"name":"Delta","fips":"26041"},"geometry":{"type":"MultiPolygon","coordinates":[[[[-86.6907,45.6169],[-86.6189,45.5619],[-86.6476,45.543],[-86.662,45.5739],[-86.7123,45.6108],[-86.6907,45.6169]]],[[[-87.3691,45.9854],[-87.2435,45.9854],[-87.2399,46.1589],[-87.1178,46.1589],[-86.6153,46.1589],[-86.4897,46.1581],[-86.4897,45.896],[-86.4574,45.896],[-86.461,45.7577],[-86.5184,45.7474],[-86.54,45.7079],[-86.5866,45.7053],[-86.5866,45.6667],[-86.6297,45.6589],[-86.6153,45.6065],[-86.6871,45.634],[-86.7194,45.6684],[-86.6764,45.6916],[-86.6728,45.7208],[-86.6333,45.7474],[-86.6297,45.7818],[-86.583,45.7784],[-86.5292,45.8531],[-86.54,45.89],[-86.583,45.8986],[-86.6476,45.8342],[-86.784,45.8548],[-86.7733,45.811],[-86.8199,45.7706],[-86.8379,45.7225],[-86.9456,45.6959],[-86.9635,45.6727],[-86.985,45.7062],[-86.9743,45.7534],[-86.9886,45.811],[-87.0173,45.8385],[-87.0532,45.8222],[-87.0712,45.7191],[-87.0604,45.7088],[-87.1717,45.6615],[-87.265,45.5507],[-87.326,45.5516],[-87.326,45.8986],[-87.3691,45.8986],[-87.3691,45.9854]]]]}},{"type":"Feature","id":"26043","properties":{"name":"Dickinson","fips":"26043"},"geometry":{"type":"MultiPolygon","coordinates":[[[[-88.1157,45.9218],[-88.1157,46.2465],[-87.6168,46.2465],[-87.6168,45.9862],[-87.6168,45.8986],[-87.6957,45.8986],[-87.6957,45.7234],[-87.8465,45.7225],[-87.8788,45.7552],[-87.9649,45.7586],[-87.9972,45.7955],[-88.0582,45.7809],[-88.1049,45.7912],[-88.1372,45.8187],[-88.0762,45.8634],[-88.1157,45.9218]]]]}},{"type":"Feature","id":"26045","properties":{"name":"Eaton","fips":"26045"},"geometry":{"type":"MultiPolygon","coordinates":[[[[-85.0755,42.7708],[-84.8386,42.7708],[-84.6017,42.7699],[-84.6017,42.422],[-84.7202,42.4211],[-85.0719,42.4211],[-85.0755,42.7708]]]]}},{"type":"Feature","id":"26047","properties":{"name":"Emmet","fips":"26047"},"geometry":{"type":"MultiPolygon","coordinates":[[[[-84.731,45.7878],[-84.731,45.2895],[-84.9643,45.2913],[-85.0002,45.2724],[-85.0468,45.3351],[-85.0971,45.3359],[-85.0971,45.3669],[-85.0325,45.3609],[-84.9176,45.3935],[-84.9212,45.4218],[-85.0396,45.4364],[-85.0899,45.4768],[-85.1186,45.5748],[-85.0612,45.6392],[-85.0145,45.6512],[-84.9427,45.7105],[-84.9499,45.7371],[-85.0145,45.7603],[-84.7992,45.7474],[-84.774,45.7895],[-84.731,45.7878]]]]}},{"type":"Feature","id":"26049","properties":{"name":"Genesee","fips":"26049"},"geometry":{"type":"MultiPolygon","coordinates":[[[[-83.6972,43.2218],[-83.4604,43.2235],[-83.4604,43.05],[-83.4532,42.8807],[-83.4532,42.8765],[-83.6901,42.8713],[-83.6865,42.7837],[-83.9234,42.7811],[-83.9305,43.1325],[-83.9305,43.2201],[-83.6972,43.2218]]]]}},{"type":"Feature","id":"26051","properties":{"name":"Gladwin","fips":"26051"},"geometry":{"type":"MultiPolygon","coordinates":[[[[-84.6089,44.1607],[-84.3684,44.1607],[-84.1674,44.1616],[-84.1674,43.9967],[-84.1674,43.8257],[-84.3649,43.8283],[-84.3684,43.8137],[-84.6053,43.8154],[-84.6089,44.1607]]]]}},{"type":"Feature","id":"26053","properties":{"name":"Gogebic","fips":"26053"},"geometry":{"type":"MultiPolygon","coordinates":[[[[-90.4164,46.5661],[-90.3482,46.6005],[-90.3051,46.6031],[-90.1652,46.6451],[-90.0288,46.6744],[-89.8888,46.7654],[-89.8637,46.7654],[-89.8637,46.5927],[-89.7416,46.5927],[-89.7416,46.506],[-89.3647,46.506],[-89.3647,46.3333],[-88.9915,46.3324],[-88.9915,46.0971],[-89.092,46.1383],[-89.9283,46.2998],[-90.1221,46.3367],[-90.1185,46.3599],[-90.219,46.5034],[-90.3159,46.5171],[-90.3518,46.5378],[-90.3949,46.5326],[-90.4164,46.5661]]]]}},{"type":"Feature","id":"26055","properties":{"name":"Grand Traverse","fips":"26055"},"geometry":{"type":"MultiPolygon","coordinates":[[[[-85.8149,44.7741],[-85.6391,44.775],[-85.5996,44.7655],[-85.5314,44.8901],[-85.5206,44.9743],[-85.4739,44.9915],[-85.5027,44.8557],[-85.5565,44.8179],[-85.578,44.7604],[-85.5278,44.7483],[-85.4991,44.8042],[-85.4416,44.86],[-85.3806,44.8592],[-85.3734,44.8291],[-85.334,44.8128],[-85.334,44.5121],[-85.8185,44.513],[-85.8149,44.7741]]]]}},{"type":"Feature","id":"26057","properties":{"name":"Gratiot","fips":"26057"},"geometry":{"type":"MultiPolygon","coordinates":[[[[-84.8458,43.4658],[-84.6089,43.4658],[-84.3684,43.4658],[-84.3684,43.1282],[-84.3684,43.1178],[-84.8386,43.1187],[-84.8351,43.2922],[-84.8458,43.2922],[-84.8458,43.4658]]]]}},{"type":"Feature","id":"26059","properties":{"name":"Hillsdale","fips":"26059"},"geometry":{"type":"MultiPolygon","coordinates":[[[[-84.8279,42.0724],[-84.7094,42.0707],[-84.3649,42.0732],[-84.3613,41.7064],[-84.4007,41.7056],[-84.8063,41.6961],[-84.8063,41.7605],[-84.8243,41.7597],[-84.8279,42.0724]]]]}},{"type":"Feature","id":"26061","properties":{"name":"Houghton","fips":"26061"},"geometry":{"type":"MultiPolygon","coordinates":[[[[-88.934,47.0326],[-88.9053,47.0858],[-88.8156,47.1417],[-88.7653,47.1554],[-88.6576,47.2259],[-88.5751,47.2456],[-88.5141,47.286],[-88.2987,47.286],[-88.2987,47.2001],[-88.2269,47.2001],[-88.2485,47.1357],[-88.2736,47.1434],[-88.2987,47.0987],[-88.349,47.0764],[-88.3669,47.0188],[-88.41,46.9776],[-88.4423,46.9724],[-88.4495,46.9389],[-88.5536,46.9389],[-88.5536,46.8522],[-88.6792,46.8522],[-88.6792,46.4201],[-88.9915,46.4201],[-88.9879,46.6804],[-88.8658,46.6795],[-88.8622,46.7654],[-88.934,46.7646],[-88.934,47.0326]]]]}},{"type":"Feature","id":"26063","properties":{"name":"Huron","fips":"26063"},"geometry":{"type":"MultiPolygon","coordinates":[[[[-82.6061,43.6908],[-83.1194,43.6754],[-83.4675,43.6676],[-83.4747,43.7312],[-83.4962,43.7724],[-83.4639,43.8102],[-83.4316,43.885],[-83.4173,43.842],[-83.3491,43.8687],[-83.3311,43.8936],[-83.4065,43.9202],[-83.3204,43.9176],[-83.2809,43.9382],[-83.2629,43.9735],[-83.1804,43.9821],[-83.0584,44.0061],[-83.026,44.0448],[-82.9148,44.0705],[-82.8753,44.0448],[-82.7927,44.0233],[-82.7389,43.9898],[-82.6779,43.8841],[-82.642,43.8523],[-82.6169,43.769],[-82.6061,43.6908]]]]}},{"type":"Feature","id":"26065","properties":{"name":"Ingham","fips":"26065"},"geometry":{"type":"MultiPolygon","coordinates":[[[[-84.6017,42.7699],[-84.3649,42.7699],[-84.3649,42.7759],[-84.1567,42.7768],[-84.1423,42.5088],[-84.1423,42.4246],[-84.6017,42.422],[-84.6017,42.7699]]]]}},{"type":"Feature","id":"26067","properties":{"name":"Ionia","fips":"26067"},"geometry":{"type":"MultiPolygon","coordinates":[[[[-85.3124,43.1187],[-84.8386,43.1187],[-84.8386,42.7708],[-85.0755,42.7708],[-85.3088,42.7699],[-85.3124,43.1187]]]]}},{"type":"Feature","id":"26069","properties":{"name":"Iosco","fips":"26069"},"geometry":{"type":"MultiPolygon","coordinates":[[[[-83.8875,44.5087],[-83.3168,44.5112],[-83.3311,44.3403],[-83.3742,44.3274],[-83.4245,44.2724],[-83.5106,44.2741],[-83.5501,44.2269],[-83.5644,44.1633],[-83.8839,44.1616],[-83.8875,44.5087]]]]}},{"type":"Feature","id":"26071","properties":{"name":"Iron","fips":"26071"},"geometry":{"type":"MultiPolygon","coordinates":[[[[-88.9915,46.4201],[-88.6792,46.4201],[-88.1157,46.4201],[-88.1157,46.2465],[-88.1157,45.9218],[-88.2449,45.9631],[-88.2951,45.951],[-88.3813,45.9914],[-88.4243,45.9785],[-88.4997,45.9966],[-88.5069,46.018],[-88.6038,46.0163],[-88.6146,45.9888],[-88.6648,45.9931],[-88.6828,46.0146],[-88.7402,46.0275],[-88.812,46.0215],[-88.934,46.0739],[-88.9915,46.0971],[-88.9915,46.3324],[-88.9915,46.4201]]]]}},{"type":"Feature","id":"26073","properties":{"name":"Isabella","fips":"26073"},"geometry":{"type":"MultiPolygon","coordinates":[[[[-85.0899,43.8137],[-84.6053,43.8154],[-84.6089,43.4658],[-84.8458,43.4658],[-85.0863,43.4658],[-85.0899,43.8137]]]]}},{"type":"Feature","id":"26075","properties":{"name":"Jackson","fips":"26075"},"geometry":{"type":"MultiPolygon","coordinates":[[[[-84.7202,42.4211],[-84.6017,42.422],[-84.1423,42.4246],[-84.1315,42.4246],[-84.1315,42.0715],[-84.3649,42.0732],[-84.7094,42.0707],[-84.7202,42.3344],[-84.7202,42.4211]]]]}},{"type":"Feature","id":"26077","properties":{"name":"Kalamazoo","fips":"26077"},"geometry":{"type":"MultiPolygon","coordinates":[[[[-85.7647,42.4203],[-85.5421,42.4211],[-85.2981,42.4194],[-85.2945,42.0715],[-85.7647,42.0689],[-85.7647,42.4203]]]]}},{"type":"Feature","id":"26079","properties":{"name":"Kalkaska","fips":"26079"},"geometry":{"type":"MultiPolygon","coordinates":[[[[-85.334,44.8128],[-85.3268,44.8506],[-85.2909,44.86],[-84.8458,44.8583],[-84.8494,44.5112],[-85.334,44.5121],[-85.334,44.8128]]]]}},{"type":"Feature","id":"26081","properties":{"name":"Kent","fips":"26081"},"geometry":{"type":"MultiPolygon","coordinates":[[[[-85.7898,43.2931],[-85.5637,43.294],[-85.3124,43.294],[-85.3124,43.1187],[-85.3088,42.7699],[-85.5457,42.7682],[-85.7826,42.7682],[-85.7826,42.9142],[-85.7898,43.0311],[-85.7898,43.2055],[-85.7898,43.2931]]]]}},{"type":"Feature","id":"26083","properties":{"name":"Keweenaw","fips":"26083"},"geometry":{"type":"MultiPolygon","coordinates":[[[[-88.2269,47.2001],[-88.2987,47.2001],[-88.2987,47.286],[-88.5141,47.286],[-88.4602,47.3401],[-88.3885,47.3848],[-88.1803,47.4578],[-87.9793,47.4793],[-87.7998,47.4733],[-87.7173,47.4398],[-87.7137,47.4011],[-87.7531,47.4054],[-87.8142,47.3848],[-87.8824,47.396],[-87.9577,47.3874],[-87.9398,47.347],[-88.0546,47.298],[-88.1623,47.2164],[-88.2269,47.2001]]],[[[-89.2535,47.8762],[-89.1781,47.9355],[-88.8371,48.0566],[-88.812,48.0549],[-88.6576,48.1391],[-88.5464,48.1751],[-88.5248,48.1657],[-88.4243,48.1906],[-88.4279,48.1665],[-88.471,48.1528],[-88.5787,48.0841],[-88.5787,48.0583],[-88.6684,48.0111],[-88.8515,47.9655],[-89.0022,47.9088],[-88.995,47.8916],[-88.9125,47.8916],[-89.1243,47.8289],[-89.1889,47.8315],[-89.2535,47.8762]]]]}},{"type":"Feature","id":"26085","properties":{"name":"Lake","fips":"26085"},"geometry":{"type":"MultiPolygon","coordinates":[[[[-86.0446,44.1668],[-85.8221,44.1642],[-85.5637,44.165],[-85.5637,43.8154],[-86.0375,43.8154],[-86.0446,44.1668]]]]}},{"type":"Feature","id":"26087","properties":{"name":"Lapeer","fips":"26087"},"geometry":{"type":"MultiPolygon","coordinates":[[[[-83.1194,43.3275],[-83.1194,43.2836],[-83.0009,43.2845],[-82.9973,43.1539],[-82.983,42.8936],[-83.1014,42.8885],[-83.4532,42.8807],[-83.4604,43.05],[-83.4604,43.2235],[-83.4604,43.233],[-83.3527,43.2355],[-83.3527,43.3223],[-83.1194,43.3275]]]]}},{"type":"Feature","id":"26089","properties":{"name":"Leelanau","fips":"26089"},"geometry":{"type":"MultiPolygon","coordinates":[[[[-85.8831,45.4433],[-85.8365,45.4287],[-85.8329,45.378],[-85.8831,45.4433]]],[[[-86.0662,45.1401],[-86.0446,45.1598],[-85.9764,45.1384],[-85.998,45.0559],[-86.059,45.1006],[-86.0662,45.1401]]],[[[-85.6391,44.775],[-85.8149,44.7741],[-86.0734,44.7784],[-86.0734,44.8849],[-86.0375,44.9159],[-85.9908,44.9004],[-85.9334,44.9691],[-85.8688,44.9391],[-85.8077,44.9502],[-85.779,44.9777],[-85.7467,45.0516],[-85.7108,45.0653],[-85.657,45.1461],[-85.6175,45.1865],[-85.5852,45.1804],[-85.5421,45.2105],[-85.5314,45.177],[-85.5996,45.1495],[-85.6103,45.1134],[-85.5673,45.0439],[-85.6498,44.9743],[-85.6032,44.9906],[-85.6032,44.927],[-85.6247,44.921],[-85.6534,44.8489],[-85.6391,44.775]]],[[[-86.1559,45.0104],[-86.1164,45.0482],[-86.0949,45.0078],[-86.1559,45.0104]]]]}},{"type":"Feature","id":"26091","properties":{"name":"Lenawee","fips":"26091"},"geometry":{"type":"MultiPolygon","coordinates":[[[[-84.3649,42.0732],[-84.1315,42.0715],[-84.0095,42.0784],[-83.7726,42.0827],[-83.7619,41.7236],[-83.8803,41.7202],[-84.3613,41.7064],[-84.3649,42.0732]]]]}},{"type":"Feature","id":"26093","properties":{"name":"Livingston","fips":"26093"},"geometry":{"type":"MultiPolygon","coordinates":[[[[-84.1567,42.7768],[-83.9234,42.7811],[-83.6865,42.7837],[-83.6649,42.4315],[-83.9449,42.4237],[-84.1315,42.4246],[-84.1423,42.4246],[-84.1423,42.5088],[-84.1567,42.7768]]]]}},{"type":"Feature","id":"26095","properties":{"name":"Luce","fips":"26095"},"geometry":{"type":"MultiPolygon","coordinates":[[[[-85.8652,46.5051],[-85.8652,46.6898],[-85.7144,46.6769],[-85.5888,46.6744],[-85.4811,46.6804],[-85.2371,46.756],[-85.2371,46.2457],[-85.8652,46.2448],[-85.8652,46.5051]]]]}},{"type":"Feature","id":"26097","properties":{"name":"Mackinac","fips":"26097"},"geometry":{"type":"MultiPolygon","coordinates":[[[[-84.652,45.8625],[-84.6233,45.8771],[-84.591,45.8256],[-84.3577,45.7715],[-84.4187,45.7217],[-84.5012,45.7371],[-84.5515,45.7895],[-84.652,45.8625]]],[[[-85.8652,46.2448],[-85.2371,46.2457],[-85.115,46.2457],[-85.1114,46.1581],[-84.3649,46.1581],[-84.3649,46.0713],[-84.2392,46.0713],[-84.2392,45.9845],[-84.1136,45.9785],[-84.329,45.9562],[-84.3756,45.9321],[-84.5084,45.9914],[-84.5623,46.0326],[-84.6089,46.0266],[-84.6556,46.0524],[-84.6915,46.0172],[-84.6843,45.9734],[-84.7381,45.9459],[-84.7346,45.9072],[-84.7022,45.8531],[-84.7453,45.8359],[-84.8315,45.872],[-84.8422,45.8986],[-84.9176,45.9304],[-84.9356,45.9562],[-85.0145,46.0112],[-85.1509,46.0507],[-85.1976,46.0447],[-85.316,46.0868],[-85.3806,46.0825],[-85.4273,46.1022],[-85.4452,46.085],[-85.5134,46.0945],[-85.6032,46.0301],[-85.6642,45.9673],[-85.6965,45.9605],[-85.8113,45.9802],[-85.8652,45.9682],[-85.8652,46.2448]]]]}},{"type":"Feature","id":"26099","properties":{"name":"Macomb","fips":"26099"},"geometry":{"type":"MultiPolygon","coordinates":[[[[-83.1014,42.8885],[-82.983,42.8936],[-82.7389,42.8979],[-82.7317,42.721],[-82.7066,42.6832],[-82.7963,42.654],[-82.8215,42.6265],[-82.7892,42.6033],[-82.782,42.5646],[-82.8358,42.568],[-82.8753,42.5234],[-82.8717,42.4512],[-83.0835,42.4469],[-83.1014,42.8885]]]]}},{"type":"Feature","id":"26101","properties":{"name":"Manistee","fips":"26101"},"geometry":{"type":"MultiPolygon","coordinates":[[[[-86.2349,44.5181],[-85.8185,44.513],[-85.8221,44.1642],[-86.0446,44.1668],[-86.3856,44.1788],[-86.3426,44.2492],[-86.2672,44.3454],[-86.2349,44.5181]]]]}},{"type":"Feature","id":"26103","properties":{"name":"Marquette","fips":"26103"},"geometry":{"type":"MultiPolygon","coordinates":[[[[-88.1157,46.4201],[-88.1157,46.6786],[-87.99,46.6795],[-87.99,46.7654],[-88.0439,46.7654],[-88.0439,46.9123],[-87.9003,46.9097],[-87.8465,46.884],[-87.8178,46.8908],[-87.7567,46.8608],[-87.728,46.8273],[-87.6742,46.8367],[-87.5952,46.7826],[-87.5845,46.7302],[-87.5234,46.6881],[-87.5019,46.6477],[-87.4516,46.6056],[-87.3834,46.5927],[-87.3906,46.5249],[-87.3511,46.5008],[-87.2578,46.4879],[-87.1178,46.4948],[-87.1178,46.1589],[-87.2399,46.1589],[-87.2435,45.9854],[-87.3691,45.9854],[-87.6168,45.9862],[-87.6168,46.2465],[-88.1157,46.2465],[-88.1157,46.4201]]]]}},{"type":"Feature","id":"26105","properties":{"name":"Mason","fips":"26105"},"geometry":{"type":"MultiPolygon","coordinates":[[[[-86.3856,44.1788],[-86.0446,44.1668],[-86.0375,43.8154],[-86.4323,43.8197],[-86.4323,43.8558],[-86.4646,43.9709],[-86.5148,44.0482],[-86.5005,44.0757],[-86.4287,44.1195],[-86.3856,44.1788]]]]}},{"type":"Feature","id":"26107","properties":{"name":"Mecosta","fips":"26107"},"geometry":{"type":"MultiPolygon","coordinates":[[[[-85.5637,43.8154],[-85.0899,43.8137],[-85.0863,43.4658],[-85.5637,43.4683],[-85.5637,43.8154]]]]}},{"type":"Feature","id":"26109","properties":{"name":"Menominee","fips":"26109"},"geometry":{"type":"MultiPolygon","coordinates":[[[[-87.8465,45.7225],[-87.6957,45.7234],[-87.6957,45.8986],[-87.6168,45.8986],[-87.6168,45.9862],[-87.3691,45.9854],[-87.3691,45.8986],[-87.326,45.8986],[-87.326,45.5516],[-87.265,45.5507],[-87.326,45.4253],[-87.3942,45.3694],[-87.466,45.2732],[-87.6132,45.1238],[-87.5916,45.0954],[-87.6598,45.1074],[-87.6885,45.1478],[-87.7352,45.1719],[-87.7424,45.1968],[-87.6885,45.2981],[-87.6491,45.3394],[-87.6562,45.3686],[-87.6957,45.3901],[-87.7531,45.3497],[-87.8501,45.3411],[-87.8752,45.3815],[-87.8501,45.4021],[-87.8608,45.4347],[-87.8142,45.4639],[-87.7926,45.4983],[-87.8034,45.5387],[-87.7747,45.598],[-87.8249,45.6624],[-87.7819,45.6735],[-87.8106,45.7113],[-87.8465,45.7225]]]]}},{"type":"Feature","id":"26111","properties":{"name":"Midland","fips":"26111"},"geometry":{"type":"MultiPolygon","coordinates":[[[[-84.6053,43.8154],[-84.3684,43.8137],[-84.3649,43.8283],[-84.1674,43.8257],[-84.1674,43.5689],[-84.171,43.4821],[-84.3684,43.4812],[-84.3684,43.4658],[-84.6089,43.4658],[-84.6053,43.8154]]]]}},{"type":"Feature","id":"26113","properties":{"name":"Missaukee","fips":"26113"},"geometry":{"type":"MultiPolygon","coordinates":[[[[-85.334,44.5121],[-84.8494,44.5112],[-84.8566,44.4365],[-84.853,44.1616],[-85.0863,44.1642],[-85.334,44.165],[-85.3376,44.4253],[-85.334,44.5121]]]]}},{"type":"Feature","id":"26115","properties":{"name":"Monroe","fips":"26115"},"geometry":{"type":"MultiPolygon","coordinates":[[[[-83.7726,42.0827],[-83.5393,42.0853],[-83.3024,42.0938],[-83.1876,42.0294],[-83.1912,42.0062],[-83.2486,41.9727],[-83.2701,41.9392],[-83.3168,41.9358],[-83.3419,41.8799],[-83.3814,41.8705],[-83.4424,41.8086],[-83.4245,41.7408],[-83.4532,41.733],[-83.7619,41.7236],[-83.7726,42.0827]]]]}},{"type":"Feature","id":"26117","properties":{"name":"Montcalm","fips":"26117"},"geometry":{"type":"MultiPolygon","coordinates":[[[[-85.5637,43.4683],[-85.0863,43.4658],[-84.8458,43.4658],[-84.8458,43.2922],[-84.8351,43.2922],[-84.8386,43.1187],[-85.3124,43.1187],[-85.3124,43.294],[-85.5637,43.294],[-85.5637,43.4683]]]]}},{"type":"Feature","id":"26119","properties":{"name":"Montmorency","fips":"26119"},"geometry":{"type":"MultiPolygon","coordinates":[[[[-84.3649,45.1985],[-84.2464,45.1985],[-83.8803,45.2019],[-83.8803,45.031],[-83.8911,45.0301],[-83.8875,44.8566],[-84.372,44.8549],[-84.3649,45.1985]]]]}},{"type":"Feature","id":"26121","properties":{"name":"Muskegon","fips":"26121"},"geometry":{"type":"MultiPolygon","coordinates":[[[[-86.461,43.4726],[-86.0411,43.4675],[-86.0375,43.2931],[-85.7898,43.2931],[-85.7898,43.2055],[-85.9082,43.2063],[-85.9082,43.1187],[-86.2708,43.1187],[-86.3964,43.3163],[-86.4359,43.397],[-86.461,43.4726]]]]}},{"type":"Feature","id":"26123","properties":{"name":"Newaygo","fips":"26123"},"geometry":{"type":"MultiPolygon","coordinates":[[[[-86.0411,43.4675],[-86.0375,43.8154],[-85.5637,43.8154],[-85.5637,43.4683],[-85.5637,43.294],[-85.7898,43.2931],[-86.0375,43.2931],[-86.0411,43.4675]]]]}},{"type":"Feature","id":"26125","properties":{"name":"Oakland","fips":"26125"},"geometry":{"type":"MultiPolygon","coordinates":[[[[-83.4532,42.8807],[-83.1014,42.8885],[-83.0835,42.4469],[-83.5537,42.4349],[-83.6649,42.4315],[-83.6865,42.7837],[-83.6901,42.8713],[-83.4532,42.8765],[-83.4532,42.8807]]]]}},{"type":"Feature","id":"26127","properties":{"name":"Oceana","fips":"26127"},"geometry":{"type":"MultiPolygon","coordinates":[[[[-86.4323,43.8197],[-86.0375,43.8154],[-86.0411,43.4675],[-86.461,43.4726],[-86.54,43.6178],[-86.54,43.6591],[-86.461,43.7467],[-86.4323,43.8197]]]]}},{"type":"Feature","id":"26129","properties":{"name":"Ogemaw","fips":"26129"},"geometry":{"type":"MultiPolygon","coordinates":[[[[-84.372,44.5069],[-83.8875,44.5087],[-83.8839,44.1616],[-84.1674,44.1616],[-84.3684,44.1607],[-84.372,44.5069]]]]}},{"type":"Feature","id":"26131","properties":{"name":"Ontonagon","fips":"26131"},"geometry":{"type":"MultiPolygon","coordinates":[[[[-89.8888,46.7654],[-89.7919,46.8187],[-89.6734,46.8333],[-89.6196,46.8187],[-89.5155,46.8419],[-89.4365,46.8393],[-89.2499,46.9037],[-89.1422,46.9845],[-88.9879,46.9974],[-88.934,47.0326],[-88.934,46.7646],[-88.8622,46.7654],[-88.8658,46.6795],[-88.9879,46.6804],[-88.9915,46.4201],[-88.9915,46.3324],[-89.3647,46.3333],[-89.3647,46.506],[-89.7416,46.506],[-89.7416,46.5927],[-89.8637,46.5927],[-89.8637,46.7654],[-89.8888,46.7654]]]]}},{"type":"Feature","id":"26133","properties":{"name":"Osceola","fips":"26133"},"geometry":{"type":"MultiPolygon","coordinates":[[[[-85.5637,44.165],[-85.334,44.165],[-85.0863,44.1642],[-85.0899,43.8137],[-85.5637,43.8154],[-85.5637,44.165]]]]}},{"type":"Feature","id":"26135","properties":{"name":"Oscoda","fips":"26135"},"geometry":{"type":"MultiPolygon","coordinates":[[[[-84.372,44.8549],[-83.8875,44.8566],[-83.8875,44.5087],[-84.372,44.5069],[-84.372,44.8549]]]]}},{"type":"Feature","id":"26137","properties":{"name":"Otsego","fips":"26137"},"geometry":{"type":"MultiPolygon","coordinates":[[[[-84.8566,45.1169],[-84.7346,45.1152],[-84.7346,45.2019],[-84.3649,45.1985],[-84.372,44.8549],[-84.8458,44.8583],[-84.8566,45.0301],[-84.8566,45.1169]]]]}},{"type":"Feature","id":"26139","properties":{"name":"Ottawa","fips":"26139"},"geometry":{"type":"MultiPolygon","coordinates":[[[[-86.2708,43.1187],[-85.9082,43.1187],[-85.9082,43.2063],[-85.7898,43.2055],[-85.7898,43.0311],[-85.7826,42.9142],[-85.7826,42.7682],[-86.2098,42.7673],[-86.2098,42.8593],[-86.2313,43.0156],[-86.2708,43.1187]]]]}},{"type":"Feature","id":"26141","properties":{"name":"Presque Isle","fips":"26141"},"geometry":{"type":"MultiPolygon","coordinates":[[[[-84.2033,45.6272],[-84.128,45.5619],[-84.1172,45.5129],[-84.0562,45.4897],[-83.9377,45.4931],[-83.909,45.4854],[-83.8049,45.4193],[-83.7224,45.4133],[-83.6003,45.3523],[-83.4962,45.3574],[-83.4209,45.2904],[-83.3814,45.2689],[-83.4137,45.2457],[-83.3886,45.2071],[-83.8803,45.2019],[-84.2464,45.1985],[-84.25,45.2818],[-84.2536,45.6263],[-84.2033,45.6272]]]]}},{"type":"Feature","id":"26143","properties":{"name":"Roscommon","fips":"26143"},"geometry":{"type":"MultiPolygon","coordinates":[[[[-84.8494,44.5112],[-84.4725,44.5104],[-84.372,44.5069],[-84.3684,44.1607],[-84.6089,44.1607],[-84.853,44.1616],[-84.8566,44.4365],[-84.8494,44.5112]]]]}},{"type":"Feature","id":"26145","properties":{"name":"Saginaw","fips":"26145"},"geometry":{"type":"MultiPolygon","coordinates":[[[[-84.1674,43.5689],[-84.049,43.5671],[-84.0526,43.5242],[-83.8157,43.5225],[-83.8193,43.4787],[-83.6972,43.4787],[-83.6937,43.3257],[-83.6972,43.2218],[-83.9305,43.2201],[-83.9305,43.1325],[-84.3684,43.1282],[-84.3684,43.4658],[-84.3684,43.4812],[-84.171,43.4821],[-84.1674,43.5689]]]]}},{"type":"Feature","id":"26151","properties":{"name":"Sanilac","fips":"26151"},"geometry":{"type":"MultiPolygon","coordinates":[[[[-83.1194,43.3275],[-83.105,43.3275],[-83.1194,43.6754],[-82.6061,43.6908],[-82.5989,43.5903],[-82.5379,43.4374],[-82.5235,43.2252],[-82.502,43.1685],[-82.9973,43.1539],[-83.0009,43.2845],[-83.1194,43.2836],[-83.1194,43.3275]]]]}},{"type":"Feature","id":"26153","properties":{"name":"Schoolcraft","fips":"26153"},"geometry":{"type":"MultiPolygon","coordinates":[[[[-85.8652,46.5051],[-85.8652,46.2448],[-85.8652,45.9682],[-85.9226,45.9484],[-85.9154,45.9192],[-85.998,45.951],[-86.0734,45.9656],[-86.1595,45.9536],[-86.1954,45.9631],[-86.2779,45.9424],[-86.3246,45.9064],[-86.3318,45.8522],[-86.3641,45.7904],[-86.4143,45.7938],[-86.461,45.7577],[-86.4574,45.896],[-86.4897,45.896],[-86.4897,46.1581],[-86.6153,46.1589],[-86.6153,46.3333],[-86.3641,46.3316],[-86.3641,46.506],[-85.8652,46.5051]]]]}},{"type":"Feature","id":"26155","properties":{"name":"Shiawassee","fips":"26155"},"geometry":{"type":"MultiPolygon","coordinates":[[[[-84.3684,43.1282],[-83.9305,43.1325],[-83.9234,42.7811],[-84.1567,42.7768],[-84.3649,42.7759],[-84.3684,43.1178],[-84.3684,43.1282]]]]}},{"type":"Feature","id":"26147","properties":{"name":"St. Clair","fips":"26147"},"geometry":{"type":"MultiPolygon","coordinates":[[[[-82.9973,43.1539],[-82.502,43.1685],[-82.4877,43.1024],[-82.423,43.0079],[-82.4159,42.9667],[-82.4553,42.9271],[-82.4805,42.8026],[-82.4661,42.7622],[-82.5092,42.6651],[-82.5235,42.6076],[-82.5882,42.5509],[-82.642,42.5543],[-82.6851,42.5182],[-82.6815,42.5749],[-82.7138,42.5981],[-82.6779,42.6119],[-82.624,42.6651],[-82.6743,42.6875],[-82.7066,42.6832],[-82.7317,42.721],[-82.7389,42.8979],[-82.983,42.8936],[-82.9973,43.1539]]]]}},{"type":"Feature","id":"26149","properties":{"name":"St. Joseph","fips":"26149"},"geometry":{"type":"MultiPolygon","coordinates":[[[[-85.7647,42.0689],[-85.2945,42.0715],[-85.2909,41.7597],[-85.6606,41.7588],[-85.7898,41.7588],[-85.7611,41.7992],[-85.7647,42.0689]]]]}},{"type":"Feature","id":"26157","properties":{"name":"Tuscola","fips":"26157"},"geometry":{"type":"MultiPolygon","coordinates":[[[[-83.7008,43.6015],[-83.647,43.6041],[-83.5465,43.7072],[-83.4962,43.7072],[-83.4747,43.7312],[-83.4675,43.6676],[-83.1194,43.6754],[-83.105,43.3275],[-83.1194,43.3275],[-83.3527,43.3223],[-83.3527,43.2355],[-83.4604,43.233],[-83.4604,43.2235],[-83.6972,43.2218],[-83.6937,43.3257],[-83.6972,43.4787],[-83.7008,43.6015]]]]}},{"type":"Feature","id":"26159","properties":{"name":"Van Buren","fips":"26159"},"geometry":{"type":"MultiPolygon","coordinates":[[[[-86.2744,42.4194],[-85.7647,42.4203],[-85.7647,42.0689],[-86.2241,42.0715],[-86.2241,42.2433],[-86.3641,42.2433],[-86.2959,42.3584],[-86.2744,42.4194]]]]}},{"type":"Feature","id":"26161","properties":{"name":"Washtenaw","fips":"26161"},"geometry":{"type":"MultiPolygon","coordinates":[[[[-84.1315,42.4246],[-83.9449,42.4237],[-83.6649,42.4315],[-83.5537,42.4349],[-83.5429,42.2622],[-83.5393,42.0853],[-83.7726,42.0827],[-84.0095,42.0784],[-84.1315,42.0715],[-84.1315,42.4246]]]]}},{"type":"Feature","id":"26163","properties":{"name":"Wayne","fips":"26163"},"geometry":{"type":"MultiPolygon","coordinates":[[[[-83.5537,42.4349],[-83.0835,42.4469],[-82.8717,42.4512],[-82.8968,42.3851],[-82.9579,42.3395],[-83.0655,42.3181],[-83.1301,42.2347],[-83.123,42.1256],[-83.1337,42.0878],[-83.1876,42.0664],[-83.1876,42.0294],[-83.3024,42.0938],[-83.5393,42.0853],[-83.5429,42.2622],[-83.5537,42.4349]]]]}},{"type":"Feature","id":"26165","properties":{"name":"Wexford","fips":"26165"},"geometry":{"type":"MultiPolygon","coordinates":[[[[-85.8185,44.513],[-85.334,44.5121],[-85.3376,44.4253],[-85.334,44.165],[-85.5637,44.165],[-85.8221,44.1642],[-85.8185,44.513]]]]}}]}